COSMOS 2433 (720)       
1 32275U 07052A   22241.54872167 -.00000057  00000+0  00000+0 0  9995
2 32275  66.0795   2.2465 0002862 198.4546 338.6235  2.13104247115526
COSMOS 2432 (719)       
1 32276U 07052B   22241.39776763 -.00000057  00000+0  00000+0 0  9994
2 32276  66.0941   2.3538 0007766 330.9949  38.4022  2.13103430115522
COSMOS 2434 (721)       
1 32393U 07065A   22241.62248988  .00000071  00000+0  00000+0 0  9992
2 32393  64.3752 238.9281 0000615 176.7099 306.7803  2.13103106114238
COSMOS 2436 (723)       
1 32395U 07065C   22242.38011292  .00000075  00000+0  00000+0 0  9998
2 32395  64.3835 238.9606 0014912 350.3696 130.1831  2.13102926114184
COSMOS 2456 (730)       
1 36111U 09070A   22241.89102424  .00000036  00000+0  00000+0 0  9996
2 36111  64.3696 118.5321 0003255 321.4167 172.6535  2.13099394 98903
COSMOS 2457 (733)       
1 36112U 09070B   22241.61052885  .00000037  00000+0  00000+0 0  9993
2 36112  64.3534 118.4154 0004976 158.7216 248.0299  2.13101566 98905
COSMOS 2461 (735)       
1 36401U 10007B   22241.61724190 -.00000057  00000+0  00000+0 0  9994
2 36401  65.9647   1.0719 0019007  11.5681  75.4066  2.13103741 97253
COSMOS 2460 (732)       
1 36402U 10007C   22241.74474662 -.00000056  00000+0  00000+0 0  9994
2 36402  65.9512   1.0169 0002113 125.9220   8.0009  2.13106460 97253
COSMOS 2464 (736)       
1 37139U 10041C   22242.29501766  .00000074  00000+0  00000+0 0  9996
2 37139  63.9751 237.9439 0028135   5.6100 131.5059  2.13100828 93320
COSMOS 2476 (744)       
1 37867U 11064A   22242.49194557  .00000035  00000+0  00000+0 0  9995
2 37867  64.6568 119.8971 0020909 235.2670 265.9244  2.13101886 84261
COSMOS 2477 (745)       
1 37868U 11064B   22241.83831407  .00000037  00000+0  00000+0 0  9997
2 37868  64.6648 119.9845 0018400 236.1509 301.6811  2.13101765 84204
COSMOS 2475 (743)       
1 37869U 11064C   22241.67977453  .00000037  00000+0  00000+0 0  9992
2 37869  64.6717 119.9983 0022425 254.8326 119.4788  2.13102155 84214
COSMOS 2485 (747)       
1 39155U 13019A   22241.54632936  .00000038  00000+0  00000+0 0  9995
2 39155  64.8200 120.3733 0021619 231.3927 308.7617  2.13102084 72710
COSMOS 2492 (754)       
1 39620U 14012A   22242.26176051 -.00000055  00000+0  00000+0 0  9997
2 39620  65.8363   0.6705 0010741 325.2566  78.1499  2.13103230 65681
COSMOS 2500 (755)       
1 40001U 14032A   22241.63209222 -.00000057  00000+0  00000+0 0  9993
2 40001  65.7738   0.5470 0007290 187.7598 311.0485  2.13102363 63880
COSMOS 2501 (702K)      
1 40315U 14075A   22242.26712220  .00000073  00000+0  00000+0 0  9992
2 40315  63.6811 238.5853 0019561 212.4303 221.9124  2.13101449 60306
COSMOS 2514 (751)       
1 41330U 16008A   22241.68057852 -.00000057  00000+0  00000+0 0  9999
2 41330  65.5755   0.2198 0011089 203.3576 156.6089  2.13102677 51056
COSMOS 2516 (753)       
1 41554U 16032A   22241.86421757  .00000071  00000+0  00000+0 0  9998
2 41554  63.9082 238.8961 0015026 216.4432 188.6422  2.13106418 48663
COSMOS 2522 (752)       
1 42939U 17055A   22241.70794656  .00000071  00000+0  00000+0 0  9996
2 42939  64.1418 239.3184 0010166 244.3352 256.4350  2.13102009 38419
COSMOS 2527 (756)       
1 43508U 18053A   22241.48174206  .00000038  00000+0  00000+0 0  9999
2 43508  64.9832 120.3904 0007607 227.0731 132.2480  2.13102571 32697
COSMOS 2529 (757)       
1 43687U 18086A   22242.23550434  .00000074  00000+0  00000+0 0  9998
2 43687  64.3568 239.6363 0011937 263.4178 237.6120  2.13102236 29738
COSMOS 2534 (758)       
1 44299U 19030A   22241.97497370  .00000073  00000+0  00000+0 0  9996
2 44299  64.4292 239.5371 0014191 281.2358 154.4410  2.13101951 25371
COSMOS 2544 (759)       
1 44850U 19088A   22241.66902868  .00000038  00000+0  16595+1 0  9999
2 44850  64.9691 120.2349 0011908 257.8264 288.5804  2.13102334 21133
COSMOS 2545 (760)       
1 45358U 20018A   22241.73947633 -.00000058  00000+0  00000+0 0  9991
2 45358  64.9143   0.7651 0008235 233.7752 216.0654  2.13102699 19096
COSMOS 2547 (705K)      
1 46805U 20075A   22240.60473292  .00000067  00000+0  00000+0 0  9991
2 46805  64.6537 239.0295 0008725 246.0362 266.3784  2.13103018 14315
COSMOS 2557 (706K)      
1 52984U 22075A   22241.62314932 -.00000058  00000+0  10000-3 0  9992
2 52984  64.8185   2.9695 0010745 279.0889 172.6371  2.13101828  1131
